STARLINK-3172           
1 51139U 22005AM  25311.49719801 -.00001287  00000+0 -62766-4 0  9999
2 51139  53.2145 127.6722 0001488  94.8905 265.2257 15.08833546210290
STARLINK-3175           
1 51140U 22005AN  25311.77319906 -.00000372  00000+0 -52558-5 0  9997
2 51140  53.2158 126.4361 0001352  94.7820 265.3327 15.08832624210337
STARLINK-3179           
1 51141U 22005AP  25311.75384598 -.00001062  00000+0 -48678-4 0  9999
2 51141  53.2146 126.5093 0001690  90.9401 269.1785 15.08830523210332
STARLINK-3369           
1 51142U 22005AQ  25311.71563478  .00045887  00000+0  25531-2 0  9994
2 51142  53.2127 115.6468 0006608 150.7493 209.3872 15.13220866210474
STARLINK-3184           
1 51143U 22005AR  25310.94333525 -.00000396  00000+0 -67718-5 0  9991
2 51143  53.2124 140.1489 0002054 100.7752 259.3471 15.08830085210061
STARLINK-3185           
1 51144U 22005AS  25311.49351919  .00000511  00000+0  50203-4 0  9997
2 51144  53.2138 127.6878 0001585  90.9946 269.1228 15.08830937210292
STARLINK-3354           
1 51146U 22005AU  25311.50087669  .00000510  00000+0  50187-4 0  9999
2 51146  53.2153 127.6594 0002132  86.5458 273.5778 15.08834447210282
STARLINK-3352           
1 51147U 22005AV  25311.52793520  .00035620  00000+0  18816-2 0  9993
2 51147  53.2123 135.2763 0006606 111.3802 248.7898 15.15186021210185
STARLINK-3359           
1 51148U 22005AW  25311.48525757  .00000332  00000+0  38934-4 0  9991
2 51148  53.2134 137.9185 0001869  85.2575 274.8630 15.08848951210146
STARLINK-3360           
1 51149U 22005AX  25311.84217359 -.00000222  00000+0  41282-5 0  9998
2 51149  53.2146 135.9336 0001493  87.6304 272.4859 15.08835521210208
STARLINK-3357           
1 51150U 22005AY  25311.77955205 -.00000705  00000+0 -26202-4 0  9992
2 51150  53.2140 126.0109 0001337  95.5381 264.5764 15.08833198210343
STARLINK-3361           
1 51151U 22005AZ  25311.21387065  .01031809  68398-3  86212-3 0  9997
2 51151  53.1857  26.8689 0007659   4.9733 355.1379 16.13240464211688
STARLINK-3364           
1 51152U 22005BA  25311.81911416  .00000628  00000+0  57599-4 0  9990
2 51152  53.2131 135.8321 0002163  94.0303 266.0937 15.08835757210202
STARLINK-3181           
1 51461U 22010F   25311.82192024  .00001817  00000+0  13227-3 0  9996
2 51461  53.2156 106.2045 0001366  85.5476 274.5672 15.08828281208422
STARLINK-3166           
1 51462U 22010G   25311.81919744  .00000635  00000+0  57966-4 0  9998
2 51462  53.2179 106.2270 0001525  86.3486 273.7680 15.08836119208424
STARLINK-3419           
1 51463U 22010H   25311.72622454  .00000880  00000+0  73358-4 0  9993
2 51463  53.2159 106.6355 0001484  88.5985 271.5177 15.08846803208106
