[{"OBJECT_NAME":"STARLINK-3172","OBJECT_ID":"2022-005AM","EPOCH":"2025-11-07T11:55:57.908064","MEAN_MOTION":15.08833546,"ECCENTRICITY":0.0001488,"INCLINATION":53.2145,"RA_OF_ASC_NODE":127.6722,"ARG_OF_PERICENTER":94.8905,"MEAN_ANOMALY":265.2257,"EPHEMERIS_TYPE":0,"CLASSIFICATION_TYPE":"U","NORAD_CAT_ID":51139,"ELEMENT_SET_NO":999,"REV_AT_EPOCH":21029,"BSTAR":-6.2766e-5,"MEAN_MOTION_DOT":-1.287e-5,"MEAN_MOTION_DDOT":0},{"OBJECT_NAME":"STARLINK-3175","OBJECT_ID":"2022-005AN","EPOCH":"2025-11-07T18:33:24.398784","MEAN_MOTION":15.08832624,"ECCENTRICITY":0.0001352,"INCLINATION":53.2158,"RA_OF_ASC_NODE":126.4361,"ARG_OF_PERICENTER":94.782,"MEAN_ANOMALY":265.3327,"EPHEMERIS_TYPE":0,"CLASSIFICATION_TYPE":"U","NORAD_CAT_ID":51140,"ELEMENT_SET_NO":999,"REV_AT_EPOCH":21033,"BSTAR":-5.2558e-6,"MEAN_MOTION_DOT":-3.72e-6,"MEAN_MOTION_DDOT":0},{"OBJECT_NAME":"STARLINK-3179","OBJECT_ID":"2022-005AP","EPOCH":"2025-11-07T18:05:32.292672","MEAN_MOTION":15.08830523,"ECCENTRICITY":0.000169,"INCLINATION":53.2146,"RA_OF_ASC_NODE":126.5093,"ARG_OF_PERICENTER":90.9401,"MEAN_ANOMALY":269.1785,"EPHEMERIS_TYPE":0,"CLASSIFICATION_TYPE":"U","NORAD_CAT_ID":51141,"ELEMENT_SET_NO":999,"REV_AT_EPOCH":21033,"BSTAR":-4.8678e-5,"MEAN_MOTION_DOT":-1.062e-5,"MEAN_MOTION_DDOT":0},{"OBJECT_NAME":"STARLINK-3369","OBJECT_ID":"2022-005AQ","EPOCH":"2025-11-07T17:10:30.844992","MEAN_MOTION":15.13220866,"ECCENTRICITY":0.0006608,"INCLINATION":53.2127,"RA_OF_ASC_NODE":115.6468,"ARG_OF_PERICENTER":150.7493,"MEAN_ANOMALY":209.3872,"EPHEMERIS_TYPE":0,"CLASSIFICATION_TYPE":"U","NORAD_CAT_ID":51142,"ELEMENT_SET_NO":999,"REV_AT_EPOCH":21047,"BSTAR":0.0025531,"MEAN_MOTION_DOT":0.00045887,"MEAN_MOTION_DDOT":0},{"OBJECT_NAME":"STARLINK-3184","OBJECT_ID":"2022-005AR","EPOCH":"2025-11-06T22:38:24.165600","MEAN_MOTION":15.08830085,"ECCENTRICITY":0.00020544,"INCLINATION":53.2124,"RA_OF_ASC_NODE":140.1489,"ARG_OF_PERICENTER":100.7752,"MEAN_ANOMALY":259.3471,"EPHEMERIS_TYPE":0,"CLASSIFICATION_TYPE":"U","NORAD_CAT_ID":51143,"ELEMENT_SET_NO":999,"REV_AT_EPOCH":21006,"BSTAR":-6.771762e-6,"MEAN_MOTION_DOT":-3.96e-6,"MEAN_MOTION_DDOT":0},{"OBJECT_NAME":"STARLINK-3185","OBJECT_ID":"2022-005AS","EPOCH":"2025-11-07T11:50:40.058016","MEAN_MOTION":15.08830937,"ECCENTRICITY":0.0001585,"INCLINATION":53.2138,"RA_OF_ASC_NODE":127.6878,"ARG_OF_PERICENTER":90.9946,"MEAN_ANOMALY":269.1228,"EPHEMERIS_TYPE":0,"CLASSIFICATION_TYPE":"U","NORAD_CAT_ID":51144,"ELEMENT_SET_NO":999,"REV_AT_EPOCH":21029,"BSTAR":5.0203e-5,"MEAN_MOTION_DOT":5.11e-6,"MEAN_MOTION_DDOT":0},{"OBJECT_NAME":"STARLINK-3354","OBJECT_ID":"2022-005AU","EPOCH":"2025-11-07T12:01:15.746016","MEAN_MOTION":15.08834447,"ECCENTRICITY":0.0002132,"INCLINATION":53.2153,"RA_OF_ASC_NODE":127.6594,"ARG_OF_PERICENTER":86.5458,"MEAN_ANOMALY":273.5778,"EPHEMERIS_TYPE":0,"CLASSIFICATION_TYPE":"U","NORAD_CAT_ID":51146,"ELEMENT_SET_NO":999,"REV_AT_EPOCH":21028,"BSTAR":5.0187e-5,"MEAN_MOTION_DOT":5.1e-6,"MEAN_MOTION_DDOT":0},{"OBJECT_NAME":"STARLINK-3352","OBJECT_ID":"2022-005AV","EPOCH":"2025-11-07T12:40:13.601280","MEAN_MOTION":15.15186021,"ECCENTRICITY":0.0006606,"INCLINATION":53.2123,"RA_OF_ASC_NODE":135.2763,"ARG_OF_PERICENTER":111.3802,"MEAN_ANOMALY":248.7898,"EPHEMERIS_TYPE":0,"CLASSIFICATION_TYPE":"U","NORAD_CAT_ID":51147,"ELEMENT_SET_NO":999,"REV_AT_EPOCH":21018,"BSTAR":0.0018816,"MEAN_MOTION_DOT":0.0003562,"MEAN_MOTION_DDOT":0},{"OBJECT_NAME":"STARLINK-3359","OBJECT_ID":"2022-005AW","EPOCH":"2025-11-07T11:38:46.254048","MEAN_MOTION":15.08848951,"ECCENTRICITY":0.0001869,"INCLINATION":53.2134,"RA_OF_ASC_NODE":137.9185,"ARG_OF_PERICENTER":85.2575,"MEAN_ANOMALY":274.863,"EPHEMERIS_TYPE":0,"CLASSIFICATION_TYPE":"U","NORAD_CAT_ID":51148,"ELEMENT_SET_NO":999,"REV_AT_EPOCH":21014,"BSTAR":3.8934e-5,"MEAN_MOTION_DOT":3.32e-6,"MEAN_MOTION_DDOT":0},{"OBJECT_NAME":"STARLINK-3360","OBJECT_ID":"2022-005AX","EPOCH":"2025-11-07T20:12:43.798176","MEAN_MOTION":15.08835521,"ECCENTRICITY":0.0001493,"INCLINATION":53.2146,"RA_OF_ASC_NODE":135.9336,"ARG_OF_PERICENTER":87.6304,"MEAN_ANOMALY":272.4859,"EPHEMERIS_TYPE":0,"CLASSIFICATION_TYPE":"U","NORAD_CAT_ID":51149,"ELEMENT_SET_NO":999,"REV_AT_EPOCH":21020,"BSTAR":4.1282e-6,"MEAN_MOTION_DOT":-2.22e-6,"MEAN_MOTION_DDOT":0},{"OBJECT_NAME":"STARLINK-3357","OBJECT_ID":"2022-005AY","EPOCH":"2025-11-07T18:42:33.297120","MEAN_MOTION":15.08833198,"ECCENTRICITY":0.0001337,"INCLINATION":53.214,"RA_OF_ASC_NODE":126.0109,"ARG_OF_PERICENTER":95.5381,"MEAN_ANOMALY":264.5764,"EPHEMERIS_TYPE":0,"CLASSIFICATION_TYPE":"U","NORAD_CAT_ID":51150,"ELEMENT_SET_NO":999,"REV_AT_EPOCH":21034,"BSTAR":-2.6202e-5,"MEAN_MOTION_DOT":-7.05e-6,"MEAN_MOTION_DDOT":0},{"OBJECT_NAME":"STARLINK-3361","OBJECT_ID":"2022-005AZ","EPOCH":"2025-11-07T05:07:58.424160","MEAN_MOTION":16.13240464,"ECCENTRICITY":0.0007659,"INCLINATION":53.1857,"RA_OF_ASC_NODE":26.8689,"ARG_OF_PERICENTER":4.9733,"MEAN_ANOMALY":355.1379,"EPHEMERIS_TYPE":0,"CLASSIFICATION_TYPE":"U","NORAD_CAT_ID":51151,"ELEMENT_SET_NO":999,"REV_AT_EPOCH":21168,"BSTAR":0.00086212,"MEAN_MOTION_DOT":0.01031809,"MEAN_MOTION_DDOT":0.00068398},{"OBJECT_NAME":"STARLINK-3364","OBJECT_ID":"2022-005BA","EPOCH":"2025-11-07T19:39:31.463424","MEAN_MOTION":15.08835757,"ECCENTRICITY":0.0002163,"INCLINATION":53.2131,"RA_OF_ASC_NODE":135.8321,"ARG_OF_PERICENTER":94.0303,"MEAN_ANOMALY":266.0937,"EPHEMERIS_TYPE":0,"CLASSIFICATION_TYPE":"U","NORAD_CAT_ID":51152,"ELEMENT_SET_NO":999,"REV_AT_EPOCH":21020,"BSTAR":5.7599e-5,"MEAN_MOTION_DOT":6.28e-6,"MEAN_MOTION_DDOT":0},{"OBJECT_NAME":"STARLINK-3181","OBJECT_ID":"2022-010F","EPOCH":"2025-11-07T19:43:33.908736","MEAN_MOTION":15.08828281,"ECCENTRICITY":0.0001366,"INCLINATION":53.2156,"RA_OF_ASC_NODE":106.2045,"ARG_OF_PERICENTER":85.5476,"MEAN_ANOMALY":274.5672,"EPHEMERIS_TYPE":0,"CLASSIFICATION_TYPE":"U","NORAD_CAT_ID":51461,"ELEMENT_SET_NO":999,"REV_AT_EPOCH":20842,"BSTAR":0.00013227,"MEAN_MOTION_DOT":1.817e-5,"MEAN_MOTION_DDOT":0},{"OBJECT_NAME":"STARLINK-3166","OBJECT_ID":"2022-010G","EPOCH":"2025-11-07T19:39:38.658816","MEAN_MOTION":15.08836119,"ECCENTRICITY":0.0001525,"INCLINATION":53.2179,"RA_OF_ASC_NODE":106.227,"ARG_OF_PERICENTER":86.3486,"MEAN_ANOMALY":273.768,"EPHEMERIS_TYPE":0,"CLASSIFICATION_TYPE":"U","NORAD_CAT_ID":51462,"ELEMENT_SET_NO":999,"REV_AT_EPOCH":20842,"BSTAR":5.7966e-5,"MEAN_MOTION_DOT":6.35e-6,"MEAN_MOTION_DDOT":0},{"OBJECT_NAME":"STARLINK-3419","OBJECT_ID":"2022-010H","EPOCH":"2025-11-07T17:25:45.800256","MEAN_MOTION":15.08846803,"ECCENTRICITY":0.0001484,"INCLINATION":53.2159,"RA_OF_ASC_NODE":106.6355,"ARG_OF_PERICENTER":88.5985,"MEAN_ANOMALY":271.5177,"EPHEMERIS_TYPE":0,"CLASSIFICATION_TYPE":"U","NORAD_CAT_ID":51463,"ELEMENT_SET_NO":999,"REV_AT_EPOCH":20810,"BSTAR":7.3358e-5,"MEAN_MOTION_DOT":8.8e-6,"MEAN_MOTION_DDOT":0}]
